[{"OBJECT_NAME":"GEESAT-4 04","OBJECT_ID":"2025-170D","EPOCH":"2026-03-09T23:17:55.914720","MEAN_MOTION":15.1505395,"ECCENTRICITY":0.00176751,"INCLINATION":49.9794,"RA_OF_ASC_NODE":229.0049,"ARG_OF_PERICENTER":290.2477,"MEAN_ANOMALY":69.6574,"EPHEMERIS_TYPE":0,"CLASSIFICATION_TYPE":"U","NORAD_CAT_ID":65122,"ELEMENT_SET_NO":999,"REV_AT_EPOCH":3230,"BSTAR":0.00059156623,"MEAN_MOTION_DOT":0.00010965,"MEAN_MOTION_DDOT":0},{"OBJECT_NAME":"FLOCK 4H-12","OBJECT_ID":"2025-276BB","EPOCH":"2026-03-09T17:04:48.725184","MEAN_MOTION":15.1924028,"ECCENTRICITY":0.00012108,"INCLINATION":97.4257,"RA_OF_ASC_NODE":144.0272,"ARG_OF_PERICENTER":355.045,"MEAN_ANOMALY":5.0772,"EPHEMERIS_TYPE":0,"CLASSIFICATION_TYPE":"U","NORAD_CAT_ID":66715,"ELEMENT_SET_NO":999,"REV_AT_EPOCH":1563,"BSTAR":0.00034709281,"MEAN_MOTION_DOT":7.248e-5,"MEAN_MOTION_DDOT":0}]
